H1 CPF 01  gfz 2021 03 19 13  5782 tandemx   
H2 1003001  6202 36605    2021 03 19 12 59 42 2021 03 24 00 00 42   120 1 1  0 0 0
H9
10 0 59293  10062.000000  0    2530006.082   1627635.418  -6204563.386
10 0 59293  10182.000000  0    2006041.865    946585.795  -6529025.988
10 0 59293  10302.000000  0    1435351.155    258719.022  -6739586.952
10 0 59293  10422.000000  0     827822.470   -423316.367  -6832623.766
10 0 59293  10542.000000  0     194188.063  -1087162.447  -6806537.324
10 0 59293  10662.000000  0    -454161.480  -1720969.764  -6661774.511
10 0 59293  10782.000000  0   -1105376.179  -2313602.648  -6400822.108
10 0 59293  10902.000000  0   -1747358.334  -2854831.725  -6028169.545
10 0 59293  11022.000000  0   -2367981.884  -3335508.771  -5550239.257
10 0 59293  11142.000000  0   -2955317.563  -3747722.298  -4975287.846
10 0 59293  11262.000000  0   -3497862.062  -4084932.459  -4313275.582
10 0 59293  11382.000000  0   -3984764.768  -4342080.406  -3575703.900
10 0 59293  11502.000000  0   -4406047.790  -4515670.398  -2775424.501
10 0 59293  11622.000000  0   -4752815.064  -4603822.476  -1926420.821
10 0 59293  11742.000000  0   -5017444.791  -4606293.400  -1043565.459
10 0 59293  11862.000000  0   -5193760.171  -4524465.109   -142357.773
10 0 59293  11982.000000  0   -5277174.111  -4361300.730    761353.455
10 0 59293  12102.000000  0   -5264803.036  -4121267.921   1651657.505
10 0 59293  12222.000000  0   -5155545.815  -3810230.549   2512871.652
10 0 59293  12342.000000  0   -4950126.349  -3435312.243   3329826.041
10 0 59293  12462.000000  0   -4651099.181  -3004736.009   4088137.836
10 0 59293  12582.000000  0   -4262817.575  -2527643.263   4774469.734
10 0 59293  12702.000000  0   -3791364.951  -2013897.304   5376765.111
10 0 59293  12822.000000  0   -3244454.124  -1473877.852   5884457.313
10 0 59293  12942.000000  0   -2631295.581   -918269.877   6288652.484
10 0 59293  13062.000000  0   -1962435.791   -357849.733   6582281.054
10 0 59293  13182.000000  0   -1249570.107    196725.037   6760214.122
10 0 59293  13302.000000  0    -505336.123    735116.602   6819346.557
10 0 59293  13422.000000  0     256910.426   1247498.600   6758647.984
10 0 59293  13542.000000  0    1023334.768   1724735.235   6579179.842
10 0 59293  13662.000000  0    1779873.730   2158544.495   6284077.501
10 0 59293  13782.000000  0    2512492.892   2541641.861   5878498.579
10 0 59293  13902.000000  0    3207447.543   2867864.127   5369539.147
10 0 59293  14022.000000  0    3851543.944   3132271.210   4766115.532
10 0 59293  14142.000000  0    4432392.904   3331223.270   4078812.672
10 0 59293  14262.000000  0    4938653.856   3462431.832   3319704.780
10 0 59293  14382.000000  0    5360265.809   3524984.607   2502143.610
10 0 59293  14502.000000  0    5688652.895   3519339.794   1640521.356
10 0 59293  14622.000000  0    5916904.253   3447293.554    750013.162
10 0 59293  14742.000000  0    6039922.314   3311919.193   -153697.954
10 0 59293  14862.000000  0    6054534.524   3117479.103  -1054706.163
10 0 59293  14982.000000  0    5959566.643   2869312.265  -1937171.334
10 0 59293  15102.000000  0    5755874.968   2573701.712  -2785604.406
10 0 59293  15222.000000  0    5446338.602   2237724.529  -3585144.685
10 0 59293  15342.000000  0    5035812.090   1869087.556  -4321822.468
10 0 59293  15462.000000  0    4531038.581   1475953.485  -4982802.709
10 0 59293  15582.000000  0    3940527.207   1066762.557  -5556601.945
10 0 59293  15702.000000  0    3274400.576    650054.551  -6033278.927
10 0 59293  15822.000000  0    2544213.475    234293.924  -6404596.571
10 0 59293  15942.000000  0    1762747.955   -172297.960  -6664152.187
10 0 59293  16062.000000  0     943790.060   -561900.895  -6807477.516
10 0 59293  16182.000000  0     101888.513   -927242.329  -6832108.351
10 0 59293  16302.000000  0    -747898.962  -1261728.874  -6737620.476
10 0 59293  16422.000000  0   -1590267.698  -1559561.811  -6525636.575
10 0 59293  16542.000000  0   -2409935.705  -1815835.770  -6199801.806
10 0 59293  16662.000000  0   -3191914.616  -2026618.296  -5765726.942
10 0 59293  16782.000000  0   -3921779.417  -2189010.363  -5230902.982
10 0 59293  16902.000000  0   -4585935.830  -2301186.809  -4604584.031
10 0 59293  17022.000000  0   -5171877.341  -2362414.766  -3897638.074
10 0 59293  17142.000000  0   -5668427.738  -2373050.175  -3122368.451
10 0 59293  17262.000000  0   -6065964.065  -2334511.531  -2292306.375
10 0 59293  17382.000000  0   -6356613.599  -2249231.124  -1421978.077
10 0 59293  17502.000000  0   -6534420.417  -2120584.722   -526650.116
10 0 59293  17622.000000  0   -6595475.960  -1952800.834    377942.590
10 0 59293  17742.000000  0   -6538010.270  -1750851.410   1275880.400
10 0 59293  17862.000000  0   -6362440.130  -1520326.611   2151348.350
10 0 59293  17982.000000  0   -6071372.175  -1267297.532   2988924.004
10 0 59293  18102.000000  0   -5669562.364   -998169.724   3773856.970
10 0 59293  18222.000000  0   -5163831.608   -719531.149   4492335.850
10 0 59293  18342.000000  0   -4562939.244   -437999.317   5131732.987
10 0 59293  18462.000000  0   -3877422.744   -160071.306   5680824.984
10 0 59293  18582.000000  0   -3119404.178    108020.590   6129987.715
10 0 59293  18702.000000  0   -2302367.056    360443.987   6471360.050
10 0 59293  18822.000000  0   -1440910.348    591888.526   6698975.468
10 0 59293  18942.000000  0    -550483.658    797674.382   6808860.446
10 0 59293  19062.000000  0     352890.718    973844.913   6799098.626
10 0 59293  19182.000000  0    1252905.248   1117241.754   6669861.876
10 0 59293  19302.000000  0    2133260.579   1225561.765   6423407.550
10 0 59293  19422.000000  0    2977959.924   1297394.095   6064041.622
10 0 59293  19542.000000  0    3771601.244   1332237.164   5598048.674
10 0 59293  19662.000000  0    4499661.035   1330495.212   5033586.655
10 0 59293  19782.000000  0    5148764.392   1293454.998   4380551.274
10 0 59293  19902.000000  0    5706940.395   1223242.696   3650408.552
10 0 59293  20022.000000  0    6163852.971   1122762.062   2855994.368
10 0 59293  20142.000000  0    6511000.902    995613.604   2011288.342
10 0 59293  20262.000000  0    6741885.647    845998.481   1131165.249
10 0 59293  20382.000000  0    6852139.871    678608.307    231126.457
10 0 59293  20502.000000  0    6839614.388    498503.724   -672980.750
10 0 59293  20622.000000  0    6704419.722    310984.878  -1565252.069
10 0 59293  20742.000000  0    6448921.132    121457.357  -2430014.156
10 0 59293  20862.000000  0    6077689.389    -64703.511  -3252105.915
10 0 59293  20982.000000  0    5597408.598   -242285.809  -4017148.107
10 0 59293  21102.000000  0    5016742.822   -406368.424  -4711795.349
10 0 59293  21222.000000  0    4346166.225   -552439.030  -5323964.206
10 0 59293  21342.000000  0    3597763.712   -676500.880  -5843035.558
10 0 59293  21462.000000  0    2785004.868   -775166.996  -6260029.722
10 0 59293  21582.000000  0    1922495.628   -845738.409  -6567750.413
10 0 59293  21702.000000  0    1025714.976   -886265.696  -6760897.021
10 0 59293  21822.000000  0     110739.937   -895594.123  -6836147.126
10 0 59293  21942.000000  0    -806037.836   -873389.787  -6792206.856
10 0 59293  22062.000000  0   -1708198.314   -820148.036  -6629830.806
10 0 59293  22182.000000  0   -2579580.895   -737183.110  -6351810.363
10 0 59293  22302.000000  0   -3404566.897   -626599.758  -5962929.649
10 0 59293  22422.000000  0   -4168354.855   -491247.143  -5469893.464
10 0 59293  22542.000000  0   -4857227.193   -334655.245  -4881222.851
10 0 59293  22662.000000  0   -5458799.915   -160955.148  -4207119.190
10 0 59293  22782.000000  0   -5962253.641     25215.504  -3459299.223
10 0 59293  22902.000000  0   -6358539.714    218821.108  -2650799.345
10 0 59293  23022.000000  0   -6640555.857    414547.872  -1795753.706
10 0 59293  23142.000000  0   -6803287.059    606932.921   -909148.342
10 0 59293  23262.000000  0   -6843907.469    790498.252     -6554.279
10 0 59293  23382.000000  0   -6761836.346    959887.248    896152.784
10 0 59293  23502.000000  0   -6558751.020   1109999.991   1783078.531
10 0 59293  23622.000000  0   -6238555.103   1236123.919   2638599.170
10 0 59293  23742.000000  0   -5807300.676   1334056.082   3447646.013
10 0 59293  23862.000000  0   -5273066.693   1400213.799   4195978.088
10 0 59293  23982.000000  0   -4645798.157   1431731.174   4870436.310
10 0 59293  24102.000000  0   -3937111.217   1426539.006   5459175.150
10 0 59293  24222.000000  0   -3160069.388   1383426.648   5951868.533
10 0 59293  24342.000000  0   -2328935.055   1302084.497   6339887.962
10 0 59293  24462.000000  0   -1458900.080   1183126.732   6616448.679
10 0 59293  24582.000000  0    -565803.282   1028092.887   6776720.894
10 0 59293  24702.000000  0     334158.712    839429.276   6817907.998
10 0 59293  24822.000000  0    1224724.335    620450.143   6739292.013
10 0 59293  24942.000000  0    2089859.649    375279.711   6542245.300
10 0 59293  25062.000000  0    2914045.999    108775.487   6230208.759
10 0 59293  25182.000000  0    3682559.695   -173566.300   5808636.488
10 0 59293  25302.000000  0    4381738.054   -465721.552   5284905.367
10 0 59293  25422.000000  0    4999227.218   -761263.356   4668192.100
10 0 59293  25542.000000  0    5524207.959  -1053499.109   3969317.835
10 0 59293  25662.000000  0    5947594.325  -1335617.371   3200562.225
10 0 59293  25782.000000  0    6262200.889  -1600840.766   2375448.261
10 0 59293  25902.000000  0    6462873.578  -1842581.321   1508502.362
10 0 59293  26022.000000  0    6546581.054  -2054594.620    614994.020
10 0 59293  26142.000000  0    6512463.917  -2231129.833   -289340.621
10 0 59293  26262.000000  0    6361839.384  -2367069.661  -1188585.235
10 0 59293  26382.000000  0    6098162.020  -2458058.086  -2066932.410
10 0 59293  26502.000000  0    5726940.971  -2500612.142  -2908969.236
99
